NORAD_CAT_ID,OBJECT_NAME,OBJECT_TYPE,EPOCH,MEAN_MOTION,ECCENTRICITY,INCLINATION,RA_OF_ASC_NODE,ARG_OF_PERICENTER,MEAN_ANOMALY,BSTAR,MEAN_MOTION_DOT,MEAN_MOTION_DDOT,TLE_LINE0,TLE_LINE1,TLE_LINE2,SEMIMAJOR_AXIS,PERIOD,APOGEE,PERIGEE,DECAYED
52628.0,STARLINK-4001,PAYLOAD,2023-08-26 01:34:02,15.08842409,0.0001532,53.2193,123.8978,76.2094,283.9068,2.814e-05,1.6e-06,0.0,0 STARLINK-4001,1 52628U 22052AG  23238.06530519  .00000160  00000-0  28140-4 0  9997,2 52628  53.2193 123.8978 0001532  76.2094 283.9068 15.08842409 70896,6917.873,95.437,540.798,538.678,0.0
52628.0,STARLINK-4001,PAYLOAD,2023-08-26 20:38:40,15.08836358,0.0001519,53.2188,120.3294,78.4967,281.6196,6.9166e-05,8.13e-06,0.0,0 STARLINK-4001,1 52628U 22052AG  23238.86018722  .00000813  00000-0  69166-4 0  9990,2 52628  53.2188 120.3294 0001519  78.4967 281.6196 15.08836358 71019,6917.892,95.438,540.807,538.706,0.0
52628.0,STARLINK-4001,PAYLOAD,2023-08-26 23:49:26,15.08840262,0.0001259,53.2179,119.7352,83.927,276.1866,7.8329e-05,9.59e-06,0.0,0 STARLINK-4001,1 52628U 22052AG  23238.99266418  .00000959  00000-0  78329-4 0  9993,2 52628  53.2179 119.7352 0001259  83.9270 276.1866 15.08840262 71411,6917.88,95.438,540.616,538.874,0.0
52628.0,STARLINK-4001,PAYLOAD,2023-08-27 20:29:27,15.08840035,0.0001292,53.2174,115.8725,82.622,277.4918,-2.7256e-07,-2.92e-06,0.0,0 STARLINK-4001,1 52628U 22052AG  23239.85378853 -.00000292  00000-0 -27256-6 0  9993,2 52628  53.2174 115.8725 0001292  82.6220 277.4918 15.08840035 71167,6917.88,95.438,540.639,538.851,0.0
52628.0,STARLINK-4001,PAYLOAD,2023-08-28 01:15:36,15.08843338,0.0001271,53.2171,114.979,83.3133,276.8004,2.466e-05,1.05e-06,0.0,0 STARLINK-4001,1 52628U 22052AG  23240.05250526  .00000105  00000-0  24660-4 0  9998,2 52628  53.2171 114.9790 0001271  83.3133 276.8004 15.08843338 71577,6917.87,95.437,540.614,538.856,0.0
52628.0,STARLINK-4001,PAYLOAD,2023-08-28 21:55:37,15.08815575,0.0001253,53.2167,111.1127,100.1087,260.0046,0.00024151,3.555e-05,0.0,0 STARLINK-4001,1 52628U 22052AG  23240.91363325  .00003555  00000-0  24151-3 0  9991,2 52628  53.2167 111.1127 0001253 100.1087 260.0046 15.08815575 71327,6917.955,95.439,540.687,538.953,0.0
52628.0,STARLINK-4001,PAYLOAD,2023-08-29 01:06:23,15.08841045,0.000135,53.2176,110.5156,91.857,268.2577,-1.8521e-05,-5.83e-06,0.0,0 STARLINK-4001,1 52628U 22052AG  23241.04610787 -.00000583  00000-0 -18521-4 0  9998,2 52628  53.2176 110.5156 0001350  91.8570 268.2577 15.08841045 71727,6917.877,95.437,540.676,538.808,0.0
52628.0,STARLINK-4001,PAYLOAD,2023-08-29 20:11:01,15.08838992,0.0001369,53.2171,106.9486,95.2968,264.818,2.0788e-05,4.3e-07,0.0,0 STARLINK-4001,1 52628U 22052AG  23241.84098890  .00000043  00000-0  20788-4 0  9998,2 52628  53.2171 106.9486 0001369  95.2968 264.8180 15.08838992 71466,6917.883,95.438,540.696,538.801,0.0
52628.0,STARLINK-4001,PAYLOAD,2023-08-30 00:57:10,15.08831596,0.0001449,53.2176,106.0554,103.1319,256.9835,0.00012999,1.781e-05,0.0,0 STARLINK-4001,1 52628U 22052AG  23242.03971048  .00001781  00000-0  12999-3 0  9999,2 52628  53.2176 106.0554 0001449 103.1319 256.9835 15.08831596 71873,6917.906,95.438,540.773,538.769,0.0
52628.0,STARLINK-4001,PAYLOAD,2023-08-30 21:37:12,15.08832149,8.54e-05,53.2171,102.1949,99.5443,260.5645,2.9861e-05,1.88e-06,0.0,0 STARLINK-4001,1 52628U 22052AG  23242.90083355  .00000188  00000-0  29861-4 0  9997,2 52628  53.2171 102.1949 0000854  99.5443 260.5645 15.08832149 71626,6917.904,95.438,540.36,539.179,0.0
52628.0,STARLINK-4001,PAYLOAD,2023-08-31 00:47:57,15.08839582,0.0001319,53.2161,101.5973,91.053,269.0613,3.218e-05,2.24e-06,0.0,0 STARLINK-4001,1 52628U 22052AG  23243.03330917  .00000224  00000-0  32180-4 0  9990,2 52628  53.2161 101.5973 0001319  91.0530 269.0613 15.08839582 71645,6917.882,95.438,540.659,538.834,0.0
52628.0,STARLINK-4001,PAYLOAD,2023-09-01 00:38:45,15.08838213,0.0001634,53.2167,97.1381,95.9048,264.213,-1.8146e-05,-5.77e-06,0.0,0 STARLINK-4001,1 52628U 22052AG  23244.02691364 -.00000577  00000-0 -18146-4 0  9995,2 52628  53.2167  97.1381 0001634  95.9048 264.2130 15.08838213 72171,6917.886,95.438,540.881,538.62,0.0
52628.0,STARLINK-4001,PAYLOAD,2023-09-01 07:00:18,15.08832465,0.0001763,53.2159,95.9496,87.9156,272.2038,-3.0239e-05,-7.69e-06,0.0,0 STARLINK-4001,1 52628U 22052AG  23244.29187825 -.00000769  00000-0 -30239-4 0  9996,2 52628  53.2159  95.9496 0001763  87.9156 272.2038 15.08832465 71830,6917.903,95.438,540.988,538.549,0.0
52628.0,STARLINK-4001,PAYLOAD,2023-09-01 21:18:46,15.08800105,0.0001994,53.2131,93.2721,93.2743,266.8477,0.00049004,7.511e-05,0.0,0 STARLINK-4001,1 52628U 22052AG  23244.88803819  .00007511  00000-0  49004-3 0  9998,2 52628  53.2131  93.2721 0001994  93.2743 266.8477 15.08800105 71922,6918.002,95.44,541.247,538.488,0.0
52628.0,STARLINK-4001,PAYLOAD,2023-09-02 06:51:05,15.08812919,0.0001951,53.2117,91.4872,92.961,267.1606,0.00034106,5.14e-05,0.0,0 STARLINK-4001,1 52628U 22052AG  23245.28548243  .00005140  00000-0  34106-3 0  9993,2 52628  53.2117  91.4872 0001951  92.9610 267.1606 15.08812919 71985,6917.963,95.439,541.178,538.478,0.0
52628.0,STARLINK-4001,PAYLOAD,2023-09-02 19:34:10,15.08839048,0.0001326,53.2172,89.1066,87.7866,272.3278,3.0965e-05,2.05e-06,0.0,0 STARLINK-4001,1 52628U 22052AG  23245.81539521  .00000205  00000-0  30965-4 0  9998,2 52628  53.2172  89.1066 0001326  87.7866 272.3278 15.08839048 72061,6917.883,95.438,540.666,538.831,0.0
52628.0,STARLINK-4001,PAYLOAD,2023-09-03 00:20:19,15.08856925,0.0001441,53.2172,88.2139,92.4722,267.6435,-0.00016422,-2.902e-05,0.0,0 STARLINK-4001,1 52628U 22052AG  23246.01411272 -.00002902  00000-0 -16422-3 0  9992,2 52628  53.2172  88.2139 0001441  92.4722 267.6435 15.08856925 72474,6917.829,95.436,540.691,538.697,0.0
52628.0,STARLINK-4001,PAYLOAD,2023-09-03 06:41:51,15.08842113,0.0001362,53.2175,87.0249,89.1665,270.9483,5.0445e-05,5.15e-06,0.0,0 STARLINK-4001,1 52628U 22052AG  23246.27907269  .00000515  00000-0  50445-4 0  9996,2 52628  53.2175  87.0249 0001362  89.1665 270.9483 15.08842113 72516,6917.874,95.437,540.681,538.797,0.0
52628.0,STARLINK-4001,PAYLOAD,2023-09-04 12:54:12,15.08832684,0.0001368,53.2174,81.3749,88.4719,271.643,3.6104e-06,-2.3e-06,0.0,0 STARLINK-4001,1 52628U 22052AG  23247.53764017 -.00000230  00000-0  36104-5 0  9990,2 52628  53.2174  81.3749 0001368  88.4719 271.6430 15.08832684 72326,6917.903,95.438,540.714,538.821,0.0
52628.0,STARLINK-4001,PAYLOAD,2023-09-04 19:15:44,15.08834627,0.0001321,53.217,80.1863,86.6072,273.5071,1.556e-05,-4e-07,0.0,0 STARLINK-4001,1 52628U 22052AG  23247.80259922 -.00000040  00000-0  15560-4 0  9995,2 52628  53.2170  80.1863 0001321  86.6072 273.5071 15.08834627 72744,6917.897,95.438,540.676,538.848,0.0
52628.0,STARLINK-4001,PAYLOAD,2023-09-05 19:06:30,15.08844916,0.0001381,53.2181,75.7251,87.6458,272.4692,5.4091e-05,5.73e-06,0.0,0 STARLINK-4001,1 52628U 22052AG  23248.79619116  .00000573  00000-0  54091-4 0  9991,2 52628  53.2181  75.7251 0001381  87.6458 272.4692 15.08844916 72897,6917.865,95.437,540.686,538.775,0.0
52628.0,STARLINK-4001,PAYLOAD,2023-09-06 12:35:45,15.08833672,0.0001153,53.2184,72.4551,82.184,277.9283,0.00011288,1.509e-05,0.0,0 STARLINK-4001,1 52628U 22052AG  23249.52483603  .00001509  00000-0  11288-3 0  9993,2 52628  53.2184  72.4551 0001153  82.1840 277.9283 15.08833672 72623,6917.9,95.438,540.562,538.967,0.0
52628.0,STARLINK-4001,PAYLOAD,2023-09-06 18:57:18,15.0883877,0.0001635,53.2166,71.2648,89.6403,270.4776,7.5544e-05,9.14e-06,0.0,0 STARLINK-4001,1 52628U 22052AG  23249.78979443  .00000914  00000-0  75544-4 0  9998,2 52628  53.2166  71.2648 0001635  89.6403 270.4776 15.08838770 72662,6917.884,95.438,540.88,538.618,0.0
52628.0,STARLINK-4001,PAYLOAD,2023-09-07 12:26:33,15.08841028,0.0001418,53.2185,67.996,87.7035,272.4119,-5.1036e-05,-1.1e-05,0.0,0 STARLINK-4001,1 52628U 22052AG  23250.51843829 -.00001100  00000-0 -51036-4 0  9999,2 52628  53.2185  67.9960 0001418  87.7035 272.4119 15.08841028 72776,6917.877,95.437,540.723,538.761,0.0
52628.0,STARLINK-4001,PAYLOAD,2023-09-07 18:48:05,15.08845672,0.0001372,53.2186,66.8061,87.5501,272.5649,-1.5531e-05,-5.35e-06,0.0,0 STARLINK-4001,1 52628U 22052AG  23250.78339337 -.00000535  00000-0 -15531-4 0  9993,2 52628  53.2186  66.8061 0001372  87.5501 272.5649 15.08845672 72815,6917.863,95.437,540.677,538.779,0.0
52628.0,STARLINK-4001,PAYLOAD,2023-09-08 04:20:24,15.08837466,0.0001118,53.2156,65.0195,81.2715,278.8404,4.2945e-05,3.96e-06,0.0,0 STARLINK-4001,1 52628U 22052AG  23251.18083605  .00000396  00000-0  42945-4 0  9994,2 52628  53.2156  65.0195 0001118  81.2715 278.8404 15.08837466 73256,6917.888,95.438,540.527,538.98,0.0
52628.0,STARLINK-4001,PAYLOAD,2023-09-08 18:38:53,15.08832952,0.0001387,53.2186,62.3462,91.3832,268.7319,-1.6088e-05,-5.44e-06,0.0,0 STARLINK-4001,1 52628U 22052AG  23251.77700345 -.00000544  00000-0 -16088-4 0  9992,2 52628  53.2186  62.3462 0001387  91.3832 268.7319 15.08832952 73344,6917.902,95.438,540.726,538.807,0.0
52628.0,STARLINK-4001,PAYLOAD,2023-09-08 21:49:39,15.08835432,0.0001379,53.2187,61.7509,87.1266,272.9884,2.3677e-06,-2.5e-06,0.0,0 STARLINK-4001,1 52628U 22052AG  23251.90948192 -.00000250  00000-0  23677-5 0  9997,2 52628  53.2187  61.7509 0001379  87.1266 272.9884 15.08835432 72984,6917.894,95.438,540.713,538.805,0.0
52628.0,STARLINK-4001,PAYLOAD,2023-09-09 12:08:07,15.08835289,0.0001215,53.2193,59.0739,88.2864,271.8268,-3.4139e-06,-3.42e-06,0.0,0 STARLINK-4001,1 52628U 22052AG  23252.50564470 -.00000342  00000-0 -34139-5 0  9995,2 52628  53.2193  59.0739 0001215  88.2864 271.8268 15.08835289 73076,6917.895,95.438,540.6,538.919,0.0
52628.0,STARLINK-4001,PAYLOAD,2023-09-09 18:29:39,15.08841829,0.0001075,53.2184,57.884,79.8731,280.2382,4.342e-05,4.03e-06,0.0,0 STARLINK-4001,1 52628U 22052AG  23252.77059965  .00000403  00000-0  43420-4 0  9990,2 52628  53.2184  57.8840 0001075  79.8731 280.2382 15.08841829 73492,6917.875,95.437,540.483,538.996,0.0
